TOMORROW-S3             
1 62392U 24247R   26068.49782200  .00007664  00000+0  28858-3 0  9991
2 62392  44.9999 117.9871 0000396 320.9462  39.1392 15.27672122 67708
STARLINK-32740          
1 62754U 25014V   26068.24284773  .00039875  00000+0  14503-2 0  9991
2 62754  43.0001 156.5188 0001842 269.0252  91.0389 15.27588843 63199
